HYPERFIELD-1A           
1 60562U 24149CY  26068.76488211  .00008569  00000+0  30052-3 0  9998
2 60562  97.3842 149.5066 0003865 313.7844  46.3076 15.29681349 86836
STARLINK-34518          
1 64480U 25133J   26068.50967989  .00023703  00000+0  81004-3 0  9991
2 64480  53.1587 117.4416 0001295  94.6877 265.4271 15.30193054 41008
